{
  "type": "FeatureCollection",
  "features": [
    {
      "type": "Feature",
      "properties": {
        "norad_id": 33860,
        "name": "IRIDIUM 33 DEB",
        "group": "iridium-33-debris",
        "lat": 37.19164328499254,
        "lon": -153.5215548589244,
        "alt_km": 670.8252866431749,
        "timestamp": "2025-12-08T05:48:09.418495+00:00",
        "meta_object_name": "IRIDIUM 33 DEB",
        "meta_object_id": "1997-051AD",
        "meta_epoch": "2025-12-07T21:48:56.589984",
        "meta_mean_motion": 14.67272468,
        "meta_eccentricity": 0.00080796,
        "meta_inclination": 86.3838,
        "meta_ra_of_asc_node": 29.3762,
        "meta_arg_of_pericenter": 14.2776,
        "meta_mean_anomaly": 171.5804,
        "meta_ephemeris_type": 0,
        "meta_classification_type": "U",
        "meta_norad_cat_id": 33860,
        "meta_element_set_no": 999,
        "meta_rev_at_epoch": 88651,
        "meta_bstar": 0.001579161,
        "meta_mean_motion_dot": 8.93e-05,
        "meta_mean_motion_ddot": 0,
        "tle_line1": "1 33860U 97051AD  25341.90898831  .00008930  00000+0  15792-2 0  9998",
        "tle_line2": "2 33860  86.3838  29.3762 0008079  14.2776 171.5804 14.67272468886519"
      },
      "geometry": {
        "type": "Point",
        "coordinates": [
          -153.5215548589244,
          37.19164328499254
        ]
      }
    },
    {
      "type": "Feature",
      "properties": {
        "norad_id": 33862,
        "name": "IRIDIUM 33 DEB",
        "group": "iridium-33-debris",
        "lat": 35.31769582677668,
        "lon": -143.03661180841922,
        "alt_km": 641.9332083516219,
        "timestamp": "2025-12-08T05:48:09.418506+00:00",
        "meta_object_name": "IRIDIUM 33 DEB",
        "meta_object_id": "1997-051AF",
        "meta_epoch": "2025-12-07T21:45:50.543136",
        "meta_mean_motion": 14.69356712,
        "meta_eccentricity": 0.00538028,
        "meta_inclination": 86.4089,
        "meta_ra_of_asc_node": 39.6612,
        "meta_arg_of_pericenter": 85.3176,
        "meta_mean_anomaly": 88.0788,
        "meta_ephemeris_type": 0,
        "meta_classification_type": "U",
        "meta_norad_cat_id": 33862,
        "meta_element_set_no": 999,
        "meta_rev_at_epoch": 88752,
        "meta_bstar": 0.0017531602,
        "meta_mean_motion_dot": 0.0001062,
        "meta_mean_motion_ddot": 0,
        "tle_line1": "1 33862U 97051AF  25341.90683499  .00010620  00000+0  17532-2 0  9995",
        "tle_line2": "2 33862  86.4089  39.6612 0053802  85.3176  88.0788 14.69356712887527"
      },
      "geometry": {
        "type": "Point",
        "coordinates": [
          -143.03661180841922,
          35.31769582677668
        ]
      }
    },
    {
      "type": "Feature",
      "properties": {
        "norad_id": 33866,
        "name": "IRIDIUM 33 DEB",
        "group": "iridium-33-debris",
        "lat": -23.808770810367015,
        "lon": -83.42538568298703,
        "alt_km": 740.6239770578159,
        "timestamp": "2025-12-08T05:48:09.418518+00:00",
        "meta_object_name": "IRIDIUM 33 DEB",
        "meta_object_id": "1997-051AK",
        "meta_epoch": "2025-12-07T19:27:58.017024",
        "meta_mean_motion": 14.25249491,
        "meta_eccentricity": 0.01140775,
        "meta_inclination": 86.3005,
        "meta_ra_of_asc_node": 95.1209,
        "meta_arg_of_pericenter": 177.1073,
        "meta_mean_anomaly": 337.5988,
        "meta_ephemeris_type": 0,
        "meta_classification_type": "U",
        "meta_norad_cat_id": 33866,
        "meta_element_set_no": 999,
        "meta_rev_at_epoch": 86740,
        "meta_bstar": 0.0012512167,
        "meta_mean_motion_dot": 3.167e-05,
        "meta_mean_motion_ddot": 0,
        "tle_line1": "1 33866U 97051AK  25341.81108816  .00003167  00000+0  12512-2 0  9995",
        "tle_line2": "2 33866  86.3005  95.1209 0114077 177.1073 337.5988 14.25249491867401"
      },
      "geometry": {
        "type": "Point",
        "coordinates": [
          -83.42538568298703,
          -23.808770810367015
        ]
      }
    },
    {
      "type": "Feature",
      "properties": {
        "norad_id": 33867,
        "name": "IRIDIUM 33 DEB",
        "group": "iridium-33-debris",
        "lat": 19.817228721786822,
        "lon": 171.11481309508954,
        "alt_km": 384.6165400905247,
        "timestamp": "2025-12-08T05:48:09.418529+00:00",
        "meta_object_name": "IRIDIUM 33 DEB",
        "meta_object_id": "1997-051AL",
        "meta_epoch": "2025-12-06T23:51:25.855200",
        "meta_mean_motion": 15.58581253,
        "meta_eccentricity": 0.00124601,
        "meta_inclination": 86.3623,
        "meta_ra_of_asc_node": 353.0684,
        "meta_arg_of_pericenter": 93.0935,
        "meta_mean_anomaly": 267.1755,
        "meta_ephemeris_type": 0,
        "meta_classification_type": "U",
        "meta_norad_cat_id": 33867,
        "meta_element_set_no": 999,
        "meta_rev_at_epoch": 89421,
        "meta_bstar": 0.0084503515,
        "meta_mean_motion_dot": 0.0070536,
        "meta_mean_motion_ddot": 0,
        "tle_line1": "1 33867U 97051AL  25340.99404925  .00705360  00000+0  84504-2 0  9998",
        "tle_line2": "2 33867  86.3623 353.0684 0012460  93.0935 267.1755 15.58581253894218"
      },
      "geometry": {
        "type": "Point",
        "coordinates": [
          171.11481309508954,
          19.817228721786822
        ]
      }
    },
    {
      "type": "Feature",
      "properties": {
        "norad_id": 33870,
        "name": "IRIDIUM 33 DEB",
        "group": "iridium-33-debris",
        "lat": -30.560985187686665,
        "lon": 58.043693248579416,
        "alt_km": 756.2092911438585,
        "timestamp": "2025-12-08T05:48:09.418540+00:00",
        "meta_object_name": "IRIDIUM 33 DEB",
        "meta_object_id": "1997-051AP",
        "meta_epoch": "2025-12-07T17:13:05.610720",
        "meta_mean_motion": 14.4581045,
        "meta_eccentricity": 0.0020926,
        "meta_inclination": 86.375,
        "meta_ra_of_asc_node": 60.4136,
        "meta_arg_of_pericenter": 194.7359,
        "meta_mean_anomaly": 287.1202,
        "meta_ephemeris_type": 0,
        "meta_classification_type": "U",
        "meta_norad_cat_id": 33870,
        "meta_element_set_no": 999,
        "meta_rev_at_epoch": 88064,
        "meta_bstar": 0.0014263854,
        "meta_mean_motion_dot": 5.092e-05,
        "meta_mean_motion_ddot": 0,
        "tle_line1": "1 33870U 97051AP  25341.71742605  .00005092  00000+0  14264-2 0  9994",
        "tle_line2": "2 33870  86.3750  60.4136 0020926 194.7359 287.1202 14.45810450880649"
      },
      "geometry": {
        "type": "Point",
        "coordinates": [
          58.043693248579416,
          -30.560985187686665
        ]
      }
    },
    {
      "type": "Feature",
      "properties": {
        "norad_id": 33881,
        "name": "IRIDIUM 33 DEB",
        "group": "iridium-33-debris",
        "lat": 24.644826458986888,
        "lon": 110.35777355838646,
        "alt_km": 745.8602679820133,
        "timestamp": "2025-12-08T05:48:09.418550+00:00",
        "meta_object_name": "IRIDIUM 33 DEB",
        "meta_object_id": "1997-051BA",
        "meta_epoch": "2025-12-06T21:17:41.557056",
        "meta_mean_motion": 14.5641101,
        "meta_eccentricity": 0.00613255,
        "meta_inclination": 86.3871,
        "meta_ra_of_asc_node": 109.2851,
        "meta_arg_of_pericenter": 193.6863,
        "meta_mean_anomaly": 294.0884,
        "meta_ephemeris_type": 0,
        "meta_classification_type": "U",
        "meta_norad_cat_id": 33881,
        "meta_element_set_no": 999,
        "meta_rev_at_epoch": 87415,
        "meta_bstar": 0.0034816838,
        "meta_mean_motion_dot": 0.00015893,
        "meta_mean_motion_ddot": 0,
        "tle_line1": "1 33881U 97051BA  25340.88728654  .00015893  00000+0  34817-2 0  9997",
        "tle_line2": "2 33881  86.3871 109.2851 0061325 193.6863 294.0884 14.56411010874150"
      },
      "geometry": {
        "type": "Point",
        "coordinates": [
          110.35777355838646,
          24.644826458986888
        ]
      }
    },
    {
      "type": "Feature",
      "properties": {
        "norad_id": 33884,
        "name": "IRIDIUM 33 DEB",
        "group": "iridium-33-debris",
        "lat": -5.588225579873313,
        "lon": 11.49228099712153,
        "alt_km": 634.7385979417886,
        "timestamp": "2025-12-08T05:48:09.418560+00:00",
        "meta_object_name": "IRIDIUM 33 DEB",
        "meta_object_id": "1997-051BD",
        "meta_epoch": "2025-12-07T20:51:21.594816",
        "meta_mean_motion": 14.77290665,
        "meta_eccentricity": 0.00101434,
        "meta_inclination": 86.3689,
        "meta_ra_of_asc_node": 12.0165,
        "meta_arg_of_pericenter": 342.3655,
        "meta_mean_anomaly": 190.9123,
        "meta_ephemeris_type": 0,
        "meta_classification_type": "U",
        "meta_norad_cat_id": 33884,
        "meta_element_set_no": 999,
        "meta_rev_at_epoch": 88775,
        "meta_bstar": 0.002278389,
        "meta_mean_motion_dot": 0.00016221,
        "meta_mean_motion_ddot": 0,
        "tle_line1": "1 33884U 97051BD  25341.86899994  .00016221  00000+0  22784-2 0  9991",
        "tle_line2": "2 33884  86.3689  12.0165 0010143 342.3655 190.9123 14.77290665887757"
      },
      "geometry": {
        "type": "Point",
        "coordinates": [
          11.49228099712153,
          -5.588225579873313
        ]
      }
    }
  ]
}